{
  "type": "FeatureCollection",
  "features": [
    {
      "type": "Feature",
      "properties": {
        "norad_id": 43207,
        "name": "BEIDOU-3 M4 (C22)",
        "group": "beidou",
        "lat": 29.687336848053956,
        "lon": 91.0108096618417,
        "alt_km": 21514.798918701315,
        "timestamp": "2025-12-26T21:25:53.275708+00:00",
        "meta_object_name": "BEIDOU-3 M4 (C22)",
        "meta_object_id": "2018-018A",
        "meta_epoch": "2025-12-25T18:21:17.493120",
        "meta_mean_motion": 1.86231089,
        "meta_eccentricity": 0.00042291,
        "meta_inclination": 56.4961,
        "meta_ra_of_asc_node": 68.874,
        "meta_arg_of_pericenter": 1.268,
        "meta_mean_anomaly": 358.7861,
        "meta_ephemeris_type": 0,
        "meta_classification_type": "U",
        "meta_norad_cat_id": 43207,
        "meta_element_set_no": 999,
        "meta_rev_at_epoch": 5351,
        "meta_bstar": 0,
        "meta_mean_motion_dot": -2.7e-07,
        "meta_mean_motion_ddot": 0,
        "tle_line1": "1 43207U 18018A   25359.76478580 -.00000027  00000+0  00000+0 0  9991",
        "tle_line2": "2 43207  56.4961  68.8740 0004229   1.2680 358.7861  1.86231089 53516"
      },
      "geometry": {
        "type": "Point",
        "coordinates": [
          91.0108096618417,
          29.687336848053956
        ]
      }
    },
    {
      "type": "Feature",
      "properties": {
        "norad_id": 43208,
        "name": "BEIDOU-3 M3 (C21)",
        "group": "beidou",
        "lat": -6.828530142861993,
        "lon": 64.3119627806717,
        "alt_km": 21513.485968455883,
        "timestamp": "2025-12-26T21:25:53.275718+00:00",
        "meta_object_name": "BEIDOU-3 M3 (C21)",
        "meta_object_id": "2018-018B",
        "meta_epoch": "2025-12-26T08:50:15.779616",
        "meta_mean_motion": 1.86231383,
        "meta_eccentricity": 0.00071474,
        "meta_inclination": 56.4961,
        "meta_ra_of_asc_node": 68.858,
        "meta_arg_of_pericenter": 313.9083,
        "meta_mean_anomaly": 46.0843,
        "meta_ephemeris_type": 0,
        "meta_classification_type": "U",
        "meta_norad_cat_id": 43208,
        "meta_element_set_no": 999,
        "meta_rev_at_epoch": 5352,
        "meta_bstar": 0,
        "meta_mean_motion_dot": -3e-07,
        "meta_mean_motion_ddot": 0,
        "tle_line1": "1 43208U 18018B   25360.36823819 -.00000030  00000+0  00000+0 0  9993",
        "tle_line2": "2 43208  56.4961  68.8580 0007147 313.9083  46.0843  1.86231383 53526"
      },
      "geometry": {
        "type": "Point",
        "coordinates": [
          64.3119627806717,
          -6.828530142861993
        ]
      }
    },
    {
      "type": "Feature",
      "properties": {
        "norad_id": 43245,
        "name": "BEIDOU-3 M9 (C29)",
        "group": "beidou",
        "lat": -21.48901172554114,
        "lon": 142.35273285339028,
        "alt_km": 21530.760766963875,
        "timestamp": "2025-12-26T21:25:53.275730+00:00",
        "meta_object_name": "BEIDOU-3 M9 (C29)",
        "meta_object_id": "2018-029A",
        "meta_epoch": "2025-12-26T01:08:32.545824",
        "meta_mean_motion": 1.86228224,
        "meta_eccentricity": 0.00015465,
        "meta_inclination": 54.3537,
        "meta_ra_of_asc_node": 306.0047,
        "meta_arg_of_pericenter": 290.5162,
        "meta_mean_anomaly": 69.4771,
        "meta_ephemeris_type": 0,
        "meta_classification_type": "U",
        "meta_norad_cat_id": 43245,
        "meta_element_set_no": 999,
        "meta_rev_at_epoch": 5267,
        "meta_bstar": 0,
        "meta_mean_motion_dot": -5.5e-07,
        "meta_mean_motion_ddot": 0,
        "tle_line1": "1 43245U 18029A   25360.04759891 -.00000055  00000+0  00000+0 0  9996",
        "tle_line2": "2 43245  54.3537 306.0047 0001546 290.5162  69.4771  1.86228224 52677"
      },
      "geometry": {
        "type": "Point",
        "coordinates": [
          142.35273285339028,
          -21.48901172554114
        ]
      }
    },
    {
      "type": "Feature",
      "properties": {
        "norad_id": 43246,
        "name": "BEIDOU-3 M10 (C30)",
        "group": "beidou",
        "lat": -49.88511976193103,
        "lon": -175.69710629868234,
        "alt_km": 21538.601167140998,
        "timestamp": "2025-12-26T21:25:53.275741+00:00",
        "meta_object_name": "BEIDOU-3 M10 (C30)",
        "meta_object_id": "2018-029B",
        "meta_epoch": "2025-12-25T23:35:13.323840",
        "meta_mean_motion": 1.86229188,
        "meta_eccentricity": 0.00043665,
        "meta_inclination": 54.3511,
        "meta_ra_of_asc_node": 306.0337,
        "meta_arg_of_pericenter": 3.7555,
        "meta_mean_anomaly": 356.2576,
        "meta_ephemeris_type": 0,
        "meta_classification_type": "U",
        "meta_norad_cat_id": 43246,
        "meta_element_set_no": 999,
        "meta_rev_at_epoch": 5265,
        "meta_bstar": 0,
        "meta_mean_motion_dot": -5.5e-07,
        "meta_mean_motion_ddot": 0,
        "tle_line1": "1 43246U 18029B   25359.98279310 -.00000055  00000+0  00000+0 0  9991",
        "tle_line2": "2 43246  54.3511 306.0337 0004366   3.7555 356.2576  1.86229188 52653"
      },
      "geometry": {
        "type": "Point",
        "coordinates": [
          -175.69710629868234,
          -49.88511976193103
        ]
      }
    },
    {
      "type": "Feature",
      "properties": {
        "norad_id": 43539,
        "name": "BEIDOU-2 IGSO-7 (C16)",
        "group": "beidou",
        "lat": 2.788290137311773,
        "lon": 166.4791171672635,
        "alt_km": 36032.14350052579,
        "timestamp": "2025-12-26T21:25:53.275752+00:00",
        "meta_object_name": "BEIDOU-2 IGSO-7 (C16)",
        "meta_object_id": "2018-057A",
        "meta_epoch": "2025-12-23T21:03:51.666912",
        "meta_mean_motion": 1.00254881,
        "meta_eccentricity": 0.00930582,
        "meta_inclination": 55.1784,
        "meta_ra_of_asc_node": 164.5741,
        "meta_arg_of_pericenter": 235.1099,
        "meta_mean_anomaly": 119.1175,
        "meta_ephemeris_type": 0,
        "meta_classification_type": "U",
        "meta_norad_cat_id": 43539,
        "meta_element_set_no": 999,
        "meta_rev_at_epoch": 2736,
        "meta_bstar": 0,
        "meta_mean_motion_dot": -6.1e-07,
        "meta_mean_motion_ddot": 0,
        "tle_line1": "1 43539U 18057A   25357.87768133 -.00000061  00000+0  00000+0 0  9996",
        "tle_line2": "2 43539  55.1784 164.5741 0093058 235.1099 119.1175  1.00254881 27360"
      },
      "geometry": {
        "type": "Point",
        "coordinates": [
          166.4791171672635,
          2.788290137311773
        ]
      }
    },
    {
      "type": "Feature",
      "properties": {
        "norad_id": 43581,
        "name": "BEIDOU-3 M5 (C23)",
        "group": "beidou",
        "lat": 52.94248377844944,
        "lon": -65.56065326688099,
        "alt_km": 21522.855370244524,
        "timestamp": "2025-12-26T21:25:53.275764+00:00",
        "meta_object_name": "BEIDOU-3 M5 (C23)",
        "meta_object_id": "2018-062A",
        "meta_epoch": "2025-12-24T01:25:43.982112",
        "meta_mean_motion": 1.86228769,
        "meta_eccentricity": 0.0001922,
        "meta_inclination": 54.09,
        "meta_ra_of_asc_node": 188.2582,
        "meta_arg_of_pericenter": 1.0455,
        "meta_mean_anomaly": 358.9913,
        "meta_ephemeris_type": 0,
        "meta_classification_type": "U",
        "meta_norad_cat_id": 43581,
        "meta_element_set_no": 999,
        "meta_rev_at_epoch": 5037,
        "meta_bstar": 0,
        "meta_mean_motion_dot": 1.01e-06,
        "meta_mean_motion_ddot": 0,
        "tle_line1": "1 43581U 18062A   25358.05953683  .00000101  00000+0  00000+0 0  9990",
        "tle_line2": "2 43581  54.0900 188.2582 0001922   1.0455 358.9913  1.86228769 50376"
      },
      "geometry": {
        "type": "Point",
        "coordinates": [
          -65.56065326688099,
          52.94248377844944
        ]
      }
    },
    {
      "type": "Feature",
      "properties": {
        "norad_id": 43582,
        "name": "BEIDOU-3 M6 (C24)",
        "group": "beidou",
        "lat": -9.445474372474457,
        "lon": 15.079704011697155,
        "alt_km": 21547.023107156998,
        "timestamp": "2025-12-26T21:25:53.275776+00:00",
        "meta_object_name": "BEIDOU-3 M6 (C24)",
        "meta_object_id": "2018-062B",
        "meta_epoch": "2025-12-23T22:08:28.739040",
        "meta_mean_motion": 1.86229712,
        "meta_eccentricity": 0.00078704,
        "meta_inclination": 54.0895,
        "meta_ra_of_asc_node": 188.252,
        "meta_arg_of_pericenter": 49.2706,
        "meta_mean_anomaly": 310.8346,
        "meta_ephemeris_type": 0,
        "meta_classification_type": "U",
        "meta_norad_cat_id": 43582,
        "meta_element_set_no": 999,
        "meta_rev_at_epoch": 5037,
        "meta_bstar": 0,
        "meta_mean_motion_dot": 1e-06,
        "meta_mean_motion_ddot": 0,
        "tle_line1": "1 43582U 18062B   25357.92255485  .00000100  00000+0  00000+0 0  9990",
        "tle_line2": "2 43582  54.0895 188.2520 0007870  49.2706 310.8346  1.86229712 50379"
      },
      "geometry": {
        "type": "Point",
        "coordinates": [
          15.079704011697155,
          -9.445474372474457
        ]
      }
    }
  ]
}